[
    {
        "Altitude(m)": 554242.2070535193,
        "Argument of Periapsis(deg)": 0.0,
        "Eccentricity": 0.0,
        "Inclination(deg)": 53.0,
        "Latitude(deg)": -0.07926857408265893,
        "Longitude(deg)": 44.9712664827517,
        "Mean Anomaly(deg)": 0.0,
        "RAAN(deg)": 145.0,
        "Satellite Name": "Starlink Shell 1 638",
        "Satellite Number": 638,
        "Semi-Major Axis(m)": 6931778.249405717,
        "Time(s)": 0
    },
    {
        "Altitude(m)": 554177.7917442847,
        "Argument of Periapsis(deg)": 0.00034857847951123687,
        "Eccentricity": 0.0,
        "Inclination(deg)": 53.0,
        "Latitude(deg)": 0.4246747584655394,
        "Longitude(deg)": 45.30664262301467,
        "Mean Anomaly(deg)": 0.6268312035567211,
        "RAAN(deg)": 144.99948122992254,
        "Satellite Name": "Starlink Shell 1 638",
        "Satellite Number": 638,
        "Semi-Major Axis(m)": 6931778.249405717,
        "Time(s)": 10
    },
    {
        "Altitude(m)": 554116.1805457099,
        "Argument of Periapsis(deg)": 0.0006971569590224737,
        "Eccentricity": 0.0,
        "Inclination(deg)": 53.0,
        "Latitude(deg)": 0.9286083624154984,
        "Longitude(deg)": 45.642074507834856,
        "Mean Anomaly(deg)": 1.2536624071134168,
        "RAAN(deg)": 144.99896245984505,
        "Satellite Name": "Starlink Shell 1 638",
        "Satellite Number": 638,
        "Semi-Major Axis(m)": 6931778.249405717,
        "Time(s)": 20
    },
    {
        "Altitude(m)": 554057.3796294652,
        "Argument of Periapsis(deg)": 0.0010457354385337105,
        "Eccentricity": 0.0,
        "Inclination(deg)": 53.0,
        "Latitude(deg)": 1.432509329328784,
        "Longitude(deg)": 45.97761969138156,
        "Mean Anomaly(deg)": 1.8804936106701633,
        "RAAN(deg)": 144.9984436897676,
        "Satellite Name": "Starlink Shell 1 638",
        "Satellite Number": 638,
        "Semi-Major Axis(m)": 6931778.249405717,
        "Time(s)": 30
    },
    {
        "Altitude(m)": 554001.3938109283,
        "Argument of Periapsis(deg)": 0.0013943139180449475,
        "Eccentricity": 0.0,
        "Inclination(deg)": 53.0,
        "Latitude(deg)": 1.9363547254494693,
        "Longitude(deg)": 46.313336284288205,
        "Mean Anomaly(deg)": 2.507324814226859,
        "RAAN(deg)": 144.99792491969012,
        "Satellite Name": "Starlink Shell 1 638",
        "Satellite Number": 638,
        "Semi-Major Axis(m)": 6931778.249405717,
        "Time(s)": 40
    },
    {
        "Altitude(m)": 553948.2265495317,
        "Argument of Periapsis(deg)": 0.0017428923975561844,
        "Eccentricity": 0.0,
        "Inclination(deg)": 53.0,
        "Latitude(deg)": 2.440121579989809,
        "Longitude(deg)": 46.6492819703276,
        "Mean Anomaly(deg)": 3.13415601778358,
        "RAAN(deg)": 144.99740614961266,
        "Satellite Name": "Starlink Shell 1 638",
        "Satellite Number": 638,
        "Semi-Major Axis(m)": 6931778.249405717,
        "Time(s)": 50
    },
    {
        "Altitude(m)": 553897.8799498032,
        "Argument of Periapsis(deg)": 0.002091470877067421,
        "Eccentricity": 0.0,
        "Inclination(deg)": 53.0,
        "Latitude(deg)": 2.9437868733834316,
        "Longitude(deg)": 46.985514535987335,
        "Mean Anomaly(deg)": 3.760987221340275,
        "RAAN(deg)": 144.99688737953517,
        "Satellite Name": "Starlink Shell 1 638",
        "Satellite Number": 638,
        "Semi-Major Axis(m)": 6931778.249405717,
        "Time(s)": 60
    },
    {
        "Altitude(m)": 553850.3547630999,
        "Argument of Periapsis(deg)": 0.0024400493565786582,
        "Eccentricity": 0.0,
        "Inclination(deg)": 53.0,
        "Latitude(deg)": 3.447327525493267,
        "Longitude(deg)": 47.32209240007957,
        "Mean Anomaly(deg)": 4.387818424896997,
        "RAAN(deg)": 144.9963686094577,
        "Satellite Name": "Starlink Shell 1 638",
        "Satellite Number": 638,
        "Semi-Major Axis(m)": 6931778.249405717,
        "Time(s)": 70
    },
    {
        "Altitude(m)": 553805.6503899783,
        "Argument of Periapsis(deg)": 0.002788627836089895,
        "Eccentricity": 0.0,
        "Inclination(deg)": 53.0,
        "Latitude(deg)": 3.950720383760043,
        "Longitude(deg)": 47.65907363051888,
        "Mean Anomaly(deg)": 5.014649628453718,
        "RAAN(deg)": 144.9958498393802,
        "Satellite Name": "Starlink Shell 1 638",
        "Satellite Number": 638,
        "Semi-Major Axis(m)": 6931778.249405717,
        "Time(s)": 80
    },
    {
        "Altitude(m)": 553763.7648832927,
        "Argument of Periapsis(deg)": 0.0031372063156011316,
        "Eccentricity": 0.0,
        "Inclination(deg)": 53.0,
        "Latitude(deg)": 4.453942211285005,
        "Longitude(deg)": 47.99651647402225,
        "Mean Anomaly(deg)": 5.641480832010439,
        "RAAN(deg)": 144.99533106930275,
        "Satellite Name": "Starlink Shell 1 638",
        "Satellite Number": 638,
        "Semi-Major Axis(m)": 6931778.249405717,
        "Time(s)": 90
    },
    {
        "Altitude(m)": 553724.6949519184,
        "Argument of Periapsis(deg)": 0.0034857847951123688,
        "Eccentricity": 0.0,
        "Inclination(deg)": 53.0,
        "Latitude(deg)": 4.956969674832636,
        "Longitude(deg)": 48.33447988586445,
        "Mean Anomaly(deg)": 6.26831203556716,
        "RAAN(deg)": 144.9948122992253,
        "Satellite Name": "Starlink Shell 1 638",
        "Satellite Number": 638,
        "Semi-Major Axis(m)": 6931778.249405717,
        "Time(s)": 100
    },
    {
        "Altitude(m)": 553688.4359651641,
        "Argument of Periapsis(deg)": 0.003834363274623606,
        "Eccentricity": 0.0,
        "Inclination(deg)": 53.0,
        "Latitude(deg)": 5.459779332740379,
        "Longitude(deg)": 48.673022546821386,
        "Mean Anomaly(deg)": 6.895143239123855,
        "RAAN(deg)": 144.99429352914782,
        "Satellite Name": "Starlink Shell 1 638",
        "Satellite Number": 638,
        "Semi-Major Axis(m)": 6931778.249405717,
        "Time(s)": 110
    },
    {
        "Altitude(m)": 553654.9819578602,
        "Argument of Periapsis(deg)": 0.004182941754134842,
        "Eccentricity": 0.0,
        "Inclination(deg)": 53.0,
        "Latitude(deg)": 5.96234762272784,
        "Longitude(deg)": 49.01220339305525,
        "Mean Anomaly(deg)": 7.521974442680577,
        "RAAN(deg)": 144.99377475907033,
        "Satellite Name": "Starlink Shell 1 638",
        "Satellite Number": 638,
        "Semi-Major Axis(m)": 6931778.249405717,
        "Time(s)": 120
    },
    {
        "Altitude(m)": 553624.3256361044,
        "Argument of Periapsis(deg)": 0.004531520233646079,
        "Eccentricity": 0.0,
        "Inclination(deg)": 53.0,
        "Latitude(deg)": 6.464650849591659,
        "Longitude(deg)": 49.35208214607219,
        "Mean Anomaly(deg)": 8.148805646237298,
        "RAAN(deg)": 144.99325598899287,
        "Satellite Name": "Starlink Shell 1 638",
        "Satellite Number": 638,
        "Semi-Major Axis(m)": 6931778.249405717,
        "Time(s)": 130
    },
    {
        "Altitude(m)": 553596.4583836633,
        "Argument of Periapsis(deg)": 0.0048800987131573164,
        "Eccentricity": 0.0,
        "Inclination(deg)": 53.0,
        "Latitude(deg)": 6.9666651727728635,
        "Longitude(deg)": 49.69271832988552,
        "Mean Anomaly(deg)": 8.775636849794019,
        "RAAN(deg)": 144.99273721891538,
        "Satellite Name": "Starlink Shell 1 638",
        "Satellite Number": 638,
        "Semi-Major Axis(m)": 6931778.249405717,
        "Time(s)": 140
    },
    {
        "Altitude(m)": 553571.3702690424,
        "Argument of Periapsis(deg)": 0.005228677192668553,
        "Eccentricity": 0.0,
        "Inclination(deg)": 53.0,
        "Latitude(deg)": 7.4683665937885415,
        "Longitude(deg)": 50.03417180113496,
        "Mean Anomaly(deg)": 9.402468053350715,
        "RAAN(deg)": 144.99221844883792,
        "Satellite Name": "Starlink Shell 1 638",
        "Satellite Number": 638,
        "Semi-Major Axis(m)": 6931778.249405717,
        "Time(s)": 150
    },
    {
        "Altitude(m)": 553549.0500532001,
        "Argument of Periapsis(deg)": 0.00557725567217979,
        "Eccentricity": 0.0,
        "Inclination(deg)": 53.0,
        "Latitude(deg)": 7.969730943514665,
        "Longitude(deg)": 50.37650327929287,
        "Mean Anomaly(deg)": 10.029299256907436,
        "RAAN(deg)": 144.99169967876045,
        "Satellite Name": "Starlink Shell 1 638",
        "Satellite Number": 638,
        "Semi-Major Axis(m)": 6931778.249405717,
        "Time(s)": 160
    },
    {
        "Altitude(m)": 553529.4851979178,
        "Argument of Periapsis(deg)": 0.0059258341516910265,
        "Eccentricity": 0.0,
        "Inclination(deg)": 53.0,
        "Latitude(deg)": 8.470733869305581,
        "Longitude(deg)": 50.719773364086514,
        "Mean Anomaly(deg)": 10.656130460464157,
        "RAAN(deg)": 144.991180908683,
        "Satellite Name": "Starlink Shell 1 638",
        "Satellite Number": 638,
        "Semi-Major Axis(m)": 6931778.249405717,
        "Time(s)": 170
    },
    {
        "Altitude(m)": 553512.6618748114,
        "Argument of Periapsis(deg)": 0.006274412631202263,
        "Eccentricity": 0.0,
        "Inclination(deg)": 53.0,
        "Latitude(deg)": 8.971350821943066,
        "Longitude(deg)": 51.06404306588645,
        "Mean Anomaly(deg)": 11.282961664020878,
        "RAAN(deg)": 144.9906621386055,
        "Satellite Name": "Starlink Shell 1 638",
        "Satellite Number": 638,
        "Semi-Major Axis(m)": 6931778.249405717,
        "Time(s)": 180
    }
]